#dP2019 10 18  0  0  0.00000000      96 __u+U ITR00 FIT  IAC
## 2075 432000.00000000   900.00000000 58774 0.0000000000000
+  105   C06C07C08C09C10C11C12C13C14C16C19C20C21C22C23C24C25
+        C26C27C28C29C30C32C33C34C35C36C37E01E02E03E04E05E07
+        E08E09E11E12E13E14E15E18E19E21E24E25E26E27E30E31E33
+        E36G01G02G03G05G06G07G08G09G10G11G12G13G14G15G16G17
+        G18G19G20G21G22G23G24G25G26G27G28G29G30G31G32R01R02
+        R03R05R07R08R09R11R12R13R14R15R16R17R18R19R20R21R22
+        R23R24R26  0  0  0  0  0  0  0  0  0  0  0  0  0  0
++         9  9  8  8  9  7  7  8  8  9  8  8  8  8  8  8  8
++         8  8  8  8  8  9  8  8  8  9  9  5  5  5  5  5  5
++         5  5  5  5  5  5  5  5  5  5  5  5  5  5  5  5  5
++         5  3  4  3  4  4  4  4  3  4  4  3  4  3  4  3  3
++         4  4  4  4  3  3  4  3  4  3  3  3  4  3  3  6  5
++         5  6  5  5  5  5  5  6  6  6  6  6  5  6  6  5  5
++         5  6  7  0  0  0  0  0  0  0  0  0  0  0  0  0  0
%c M  cc GPS ccc cccc cccc cccc cccc ccccc ccccc ccccc ccccc
%c cc cc ccc ccc cccc cccc cccc cccc ccccc ccccc ccccc ccccc
%f  0.0000000  0.000000000  0.00000000000  0.000000000000000
%f  0.0000000  0.000000000  0.00000000000  0.000000000000000
%i    0    0    0    0      0      0      0      0         0
%i    0    0    0    0      0      0      0      0         0
/* INFORMATION & ANALYSIS CENTER (IAC)      ULTRA-RAPID DATA
/* S/V CLOCKS ARE ALIGNED TO GNSS TIME                      
/* G:C1WC2W R:C1PC2P E:C1XC5X C:C2IC6I J:C1CC2S             
/* PCV:IGS14_2070 OL/AL:FES2004  NONE     YN ORB:CoN CLK:CoN
*  2019 10 18 14 45  0.00000000
PC06 -19359.907211  37207.236104   -190.548416    356.384743
PC07  -8470.655034  28433.238597  30303.062579   -203.056033
PC08 -22672.214076  19528.266741 -29773.520999    -17.985507
PC09  -9097.919017  38094.896693  15375.036508     49.513184
PC10   4909.547604  35631.026362  22511.622752   -281.056125
PC11   4398.321326  15930.798446 -22440.683775     49.628179
PC12 -19241.305648  20116.990651  -2500.544333    305.621947
PC13  -5985.221044  23318.281263 -34596.685770   -836.140347
PC14  10071.650893  25474.736928   5498.124053     92.408034
PC16 -16819.084629  38435.709866   3012.980470   -894.631296
PC19 -14479.805463 -19597.269359 -13572.668897    221.737219
PC20  -4386.502708 -27369.287099   3101.747673   -186.146000
PC21  -8633.007472  19119.139413 -18403.467131    246.576396
PC22 -16312.898766   -261.109523 -22639.733219   -240.672042
PC23  26551.749197   2210.453808  -8292.854271   -902.794881
PC24   4892.541254  17351.974648  21300.569226   -881.727888
PC25  22891.017492  13168.021508   8998.927324   -384.172441
PC26 -14451.856343  11307.368357  21034.169883    427.652874
PC27  19429.802887 -19880.962670   2513.830422    209.136281
PC28  22807.843036  -7197.566313 -14361.925171    200.400348
PC29 -13269.075360  -9124.668305  22787.268105    133.797416
PC30   4072.251066 -21142.613012  17761.522226    209.937552
PC32   8527.692273 -19156.498885  18415.143994   -890.587425
PC33  14576.665196  19594.868572  13516.978392   -481.016609
PC34  -3802.147404  21029.888440 -17939.150121   -163.665685
PC35 -22559.520885   7841.252812  14416.026015   -457.591470
PC36 -22497.716244 -13742.652255  -9106.259170 999999.999999
PC37  15189.902984 -10657.978589 -20812.331955   -625.622762
PE01 -24687.865141 -14310.427395   7868.725178   -713.173899
PE02  24689.567858  14271.730454  -7913.567522     86.014047
PE03  15488.334668   8669.853924  23685.912035   -223.188499
PE04 -17048.005400  13477.820633 -20097.970267   -387.847553
PE05   4836.770774  25935.332318  13424.011092   -438.988066
PE07   8582.574375 -27941.535493   4627.967467   -285.288085
PE08  16797.000179 -13773.017929  20099.338960   6275.956529
PE09  -8313.383155  28045.993279  -4588.919530   6281.279149
PE11 -14350.054957  18205.954531 -18409.250832   5547.833818
PE12 -27575.638202  10708.692447   -940.640879   6143.815529
PE13  14441.076960 -18199.642014  18341.857859    394.319309
PE14 -18421.236567  14206.621362   9805.600984   -761.281836
PE15  27435.529768 -11028.730881   1267.238015    891.122754
PE18  23508.534636  -6047.433192 -19949.125581   -855.787107
PE19 -14621.132152 -10887.347066 -23321.190892     -3.356662
PE21 -15418.496913 -22743.479367 -10994.772847   -560.958210
PE24  -3029.143989  17933.325944  23348.647592   5813.590243
PE25  15342.148149  22764.193877  11093.666906   1643.796047
PE26  -7194.724837 -14848.773003  24577.752442   3979.830240
PE27   2995.076936 -17854.992671 -23406.227629    364.346679
PE30  19616.722710  -2455.276735 -22027.597143   4457.121701
PE31 -19590.425720   2519.842331  22058.867274   -469.727784
PE33 -24374.363720  -2629.094932  16595.385271   -471.221951
PE36   7039.672396  14716.096196 -24695.007229    648.126899
PG01  10628.181847  13602.197383 -20476.954638   -166.915946
PG02  12605.861305 -14529.175774  18880.194274   -328.476464
PG03  13336.417516  23011.176268   -898.195736    -24.039453
PG05   1557.188534 -20031.498101  17133.272394     -2.456865
PG06  24329.877179  -6462.347375   8555.496403    -94.614967
PG07  23970.415543   6848.981567  10107.949158   -129.757766
PG08  -3156.685742  23437.588822 -11835.234859    -10.330812
PG09  13090.821862   8090.989892  21596.508081    -60.037779
PG10 -17448.387877  -1918.444288 -19935.084091    -99.105104
PG11   6903.429499  15032.360556 -21302.979486   -474.468165
PG12  -8745.565629 -24625.497146  -5420.868307    192.771114
PG13  12261.329826 -23003.317375  -5015.781269    -38.133871
PG14 -17968.024686  17677.453222  -7746.155010    -55.449218
PG15   -285.237347 -23385.410385 -12501.682933   -279.013566
PG16  -4831.062168  18064.238777  18490.874257    -84.487010
PG17  18471.997736  -9831.523752 -15887.752973    146.460886
PG18   1151.698477  15514.727281 -22033.712359     93.929435
PG19  19145.242282 -14953.400908 -11061.929829   -252.026302
PG20 -20800.230429 -10230.995267 -13233.914294    527.236397
PG21 -25392.763331  -3144.826645   7508.320864   -100.385305
PG22   9482.416890  23427.451867  -8107.232105   -764.936102
PG23   6125.614609  17895.583905  18838.012828   -160.730106
PG24  -8560.026695 -14560.533316 -20733.588247     -3.648098
PG25 -17479.693378 -18566.882925   7672.310803    -15.652268
PG26 -11703.725414  10240.966394  21504.294554     64.318259
PG27 -12119.145400  23436.545483   -739.668819    -91.536223
PG28  16351.282103   2645.681651 -20129.549382    758.587585
PG29 -10639.645029 -10388.208955  21973.644065     67.972589
PG30  26645.743409   -388.704338  -1012.526220    -64.306340
PG31 -23636.690693   7194.923007  10320.008743      2.829173
PG32 -18340.818100  10345.605407 -16048.039598     95.578970
PR01 -11097.132297    447.084203 -22967.763428     51.356644
PR02  -5748.833267  20524.125111 -13938.345097    393.463747
PR03   2586.347393  25174.999106   3022.357642      3.344314
PR05  10656.258908  -3170.958639  22962.496894     37.734035
PR07  -2769.655314 -25138.102205  -3460.815347    -28.197211
PR08  -9266.798280 -15495.811700 -17978.626181     14.990245
PR09   5423.314919  -9784.392788 -22905.756152     96.389557
PR11 -21963.831489 -12687.603379  -2421.481501    -83.074429
PR12 -21200.085577  -3638.332217  13760.368552     71.334173
PR13  -7806.826948   8183.810676  22853.513606    -29.802555
PR14   9695.639382  14914.673160  18308.079047     44.124680
PR15  21637.558292  13087.086220   3383.417846    104.420639
PR16  21107.338030   2946.591665 -13940.715170      2.218458
PR17  -4210.247212  13983.096665 -20919.122992    269.289411
PR18  11882.664713   4335.594020 -22145.517683     11.365866
PR19  21616.688012  -6902.515135 -11637.854133    -59.480967
PR20  18927.808299 -15312.979355   7675.748382   -393.690164
PR21   3446.834954 -13587.578773  21301.937062    -79.537957
PR22 -14079.550305  -2386.951616  21109.478698   -180.619772
PR23 -22326.383060  10762.055680   6044.031509    261.055807
PR24 -17368.977639  15981.448449  -9693.278611   -185.834132
PR26  20236.868086 -14919.636574   4209.874624      1.733305
EOF
